LEMUR-2-VALHALLA        
1 58900U 24022B   26195.88366153  .00009059  00000+0  22528-3 0  9999
2 58900  97.4076  46.2208 0009238  25.2349 334.9347 15.40481564136535
LEMUR-2-CAEL            
1 58903U 24022E   26195.54504394  .00010462  00000+0  24854-3 0  9990
2 58903  97.4059  46.8629 0007196  12.0765 348.0653 15.41842130136558
LEMUR-2-JOHNNYTRUONG    
1 59146U 24043BA  26195.89769612  .00027619  00000+0  31080-3 0  9998
2 59146  97.5390 349.3635 0004103  94.8914 265.2812 15.62544741132366
LEMUR-2-TOMATOKECHUP    
1 60471U 24149D   26195.78889043  .00006252  00000+0  17738-3 0  9991
2 60471  97.3802 277.9151 0003276 123.0266 237.1294 15.36577548106409
LEMUR-2-STELLA          
1 60533U 24149BT  26195.80908741  .00005629  00000+0  32835-3 0  9992
2 60533  97.6739 278.3948 0001238 117.0060 243.1297 15.12366864104678
LEMUR-2-MARHISYAM       
1 60536U 24149BW  26195.79984777  .00005421  00000+0  32156-3 0  9992
2 60536  97.6884 278.8613 0002535  69.4744 290.6758 15.11772815104659
LEMUR-2-AHMED-ASRAR     
1 60576U 24149DN  26195.80675463  .00005930  00000+0  33684-3 0  9999
2 60576  97.7008 281.0702 0001134 205.8662 154.2512 15.13301229104748
LEMUR-2-LLOYD           
1 60577U 24149DP  26195.94979387  .00005245  00000+0  32900-3 0  9996
2 60577  97.6750 277.1020 0004805  73.1029 287.0726 15.09748859104585
LEMUR-2-SQUIRRELCOMM    
1 60578U 24149DQ  26195.73889149  .00002486  00000+0  16827-3 0  9994
2 60578  97.6714 276.5676 0004092 330.3631  29.7364 15.07444509104550
LEMUR-2-SIERRINI        
1 60579U 24149DR  26195.76246818  .00006152  00000+0  36694-3 0  9996
2 60579  97.6848 278.4856 0006490  91.8532 268.3442 15.11508075104623
LEMUR-2-WILSON          
1 62694U 25009CP  26195.73341221  .00000680  00000+0  66876-4 0  9999
2 62694  97.7021 273.7153 0002049 327.3047  32.8047 14.95275839 81471
LEMUR-2-STAR-FOX        
1 62696U 25009CR  26195.72736177  .00003448  00000+0  26191-3 0  9998
2 62696  97.6911 277.1384 0002290  44.2985 315.8423 15.02837553 81690
LEMUR-2-ARIANNA         
1 62699U 25009CU  26195.92557572  .00003776  00000+0  28634-3 0  9991
2 62699  97.6853 277.0874 0002554  51.0319 309.1133 15.02840885 81721
LEMUR-2-ALISIA          
1 62706U 25009DB  26195.76486758  .00004418  00000+0  33134-3 0  9994
2 62706  97.6972 277.7525 0004221 129.6014 230.5584 15.03171742104306
LEMUR-2-ROUNDTRIPPER    
1 62711U 25009DG  26195.77035942  .00004798  00000+0  34951-3 0  9995
2 62711  97.7254 278.4154 0004444  64.5890 295.5795 15.04228089 81776
LEMUR-2-MYNAMEISJEFF    
1 62712U 25009DH  26195.76884382  .00004738  00000+0  34531-3 0  9993
2 62712  97.7303 278.8116 0004032  98.2906 261.8777 15.04219262 81778
